STARLINK-30494          
1 57970U 23151G   26068.36049035 -.00001272  00000+0 -35691-4 0  9993
2 57970  43.0027 192.4566 0001155 241.5536 118.5200 15.28417441137406
STARLINK-31720          
1 59497U 24071P   26068.12369372  .00000952  00000+0  44134-4 0  9998
2 59497  43.0029 343.4073 0003394 263.6483  96.3983 15.27582537108113
